GALAXY 15               
1 28884C 05041A   20237.00000000  .00000169  00000-0  00000-0 0  2375
2 28884   0.0558 283.5563 0001953 220.1034  56.0639  1.00271996    17
GALAXY 15           [PM]
1 28884C 05041A   20239.58593750  .00000167  00000-0  00000-0 0  2399
2 28884   0.0468 285.8946 0002046 216.6821 270.6400  1.00270264    12
GALAXY 16               
1 29236C 06023A   20233.00000000 -.00000044  00000-0  00000-0 0  2333
2 29236   0.0022  78.5452 0001881  80.3718  70.8665  1.00265356    15
GALAXY 16               
1 29236C 06023A   20237.00000000 -.00000019  00000-0  00000-0 0  2373
2 29236   0.0320 270.6202 0002899 235.4465  87.6672  1.00270975    13
GALAXY 16           [PM]
1 29236C 06023A   20238.94216435 -.00000037  00000-0  00000-0 0  2389
2 29236   0.0039 193.4294 0002947 314.9735  66.4157  1.00271793    12
GALAXY 17               
1 31307C 07016B   20233.00000000 -.00003779  00000-0  00000-0 0  2336
2 31307   0.0425 296.9185 0003136 214.1421  86.7308  1.00271545    13
GALAXY 17               
1 31307C 07016B   20237.00000000 -.00000084  00000-0  00000-0 0  2370
2 31307   0.0055  81.1481 0003556  71.5475  89.0334  1.00271420    12
GALAXY 17           [PM]
1 31307C 07016B   20239.94728009 -.00000084  00000-0  00000-0 0  2393
2 31307   0.0141  84.5163 0003643  71.3470  69.7856  1.00272188    18
INTELSAT 11             
1 32253C 07044B   20233.00000000 -.00000208  00000-0  00000-0 0  2332
2 32253   0.0069 127.7964 0001627  50.7355 107.2636  1.00272909    15
INTELSAT 11             
1 32253C 07044B   20237.00000000 -.00004101  00000-0  00000-0 0  2376
2 32253   0.0058 197.4491 0001956 335.4708 116.8241  1.00271465    16
INTELSAT 11         [PM]
1 32253C 07044B   20239.32657407 -.00000178  00000-0  00000-0 0  2394
2 32253   0.0000 122.4805 0001479  12.1924 274.9155  1.00273384    11
HORIZONS 2              
1 32388C 07063B   20233.00000000 -.00003235  00000-0  00000-0 0  2335
2 32388   0.0007 169.7479 0002601 334.8997 268.9852  1.00271253    10
HORIZONS 2              
1 32388C 07063B   20237.00000000 -.00000091  00000-0  00000-0 0  2370
2 32388   0.0001 144.9578 0003094 358.8491 273.7694  1.00273271    11
HORIZONS 2          [PM]
1 32388C 07063B   20239.66708333 -.00000093  00000-0  00000-0 0  2392
2 32388   0.0079  99.9863 0003107  47.5837 152.7950  1.00271846    10
GALAXY 18               
1 32951C 08024A   20233.00000000  .00000115  00000-0  00000-0 0  2332
2 32951   0.0096 186.8073 0002764 323.9944  54.9891  1.00265965    14
GALAXY 18           [PM]
1 32951C 08024A   20234.42708333 -.00003315  00000-0  00000-0 0  2340
2 32951   0.0030 173.3014 0002880 333.1605 214.4795  1.00270628    12
GALAXY 18               
1 32951C 08024A   20237.00000000  .00000114  00000-0  00000-0 0  2379
2 32951   0.0000 133.0367 0003105  14.4322  62.2525  1.00271733    17
INTELSAT 25             
1 33153C 08034A   20233.00000000 -.00004023  00000-0  00000-0 0  2331
2 33153   0.0350 228.4022 0001111 334.5177  94.3774  1.00274293    12
INTELSAT 25             
1 33153C 08034A   20237.00000000 -.00000134  00000-0  00000-0 0  2378
2 33153   0.0142 189.9605 0001356 357.7171 113.5601  1.00271472    10
INTELSAT 25         [PM]
1 33153C 08034A   20239.38592593 -.00000133  00000-0  00000-0 0  2395
2 33153   0.0084 137.6095 0001369  20.8264 284.0729  1.00272127    16
GALAXY 19               
1 33376C 08045A   20233.00000000 -.00000049  00000-0  00000-0 0  2334
2 33376   0.0071 128.8021 0003134  28.3191  74.6694  1.00270418    19
GALAXY 19               
1 33376C 08045A   20237.00000000 -.00000047  00000-0  00000-0 0  2370
2 33376   0.0352 279.0795 0003584 233.7925  82.8607  1.00270886    18
GALAXY 19           [PM]
1 33376C 08045A   20238.90763889 -.00000092  00000-0  00000-0 0  2382
2 33376   0.0009 181.8566 0003140 322.7988  59.7026  1.00271543    18
INTELSAT 14             
1 36097C 09064A   20233.00000000 -.00003811  00000-0  00000-0 0  2339
2 36097   0.0379 255.6875 0002044 255.0767 133.0347  1.00269507    18
INTELSAT 14             
1 36097C 09064A   20237.00000000 -.00004097  00000-0  00000-0 0  2374
2 36097   0.0030 176.2578 0002578 329.5106 141.9582  1.00272898    12
INTELSAT 14         [PM]
1 36097C 09064A   20239.86416667 -.00000183  00000-0  00000-0 0  2394
2 36097   0.0039 128.6962 0002683  20.2616  92.6968  1.00272700    19
INTELSAT 15             
1 36106C 09067A   20233.00000000 -.00000096  00000-0  00000-0 0  2335
2 36106   0.0007 118.7904 0001475  29.2375 265.9061  1.00272552    14
INTELSAT 15             
1 36106C 09067A   20237.00000000 -.00000095  00000-0  00000-0 0  2372
2 36106   0.0120  97.7060 0001836  49.5090 270.6741  1.00272653    19
INTELSAT 15         [PM]
1 36106C 09067A   20238.13261574 -.00000127  00000-0  00000-0 0  2389
2 36106   0.0143 243.5411 0001821 264.0552 319.1519  1.00272706    17
INTELSAT 16             
1 36397C 10006A   20233.00000000 -.00000155  00000-0  00000-0 0  2338
2 36397   0.0042 122.6394 0001916  32.9790  96.9674  1.00278258    15
INTELSAT 16             
1 36397C 10006A   20237.00000000 -.00000155  00000-0  00000-0 0  2376
2 36397   0.0141 103.4081 0002140  41.6169 111.5134  1.00271755    12
INTELSAT 16         [PM]
1 36397C 10006A   20237.58394676 -.00004162  00000-0  00000-0 0  2376
2 36397   0.0233 254.7490 0002199 248.0298 324.5543  1.00269624    10
INTELSAT 17             
1 37238C 10065B   20233.00000000  .00000089  00000-0  00000-0 0  2333
2 37238   0.0196 151.3955 0002797  12.6843 230.7168  1.00271447    13
INTELSAT 17             
1 37238C 10065B   20237.00000000  .00000088  00000-0  00000-0 0  2370
2 37238   0.0237 218.1337 0003199 303.7801 236.8187  1.00272078    19
INTELSAT 17         [PM]
1 37238C 10065B   20239.00468750  .00000089  00000-0  00000-0 0  2395
2 37238   0.0092 163.7296 0002850 334.6923 263.9678  1.00273073    10
INTELSAT NEW DAWN       
1 37392C 11016A   20233.00000000  .00000246  00000-0  00000-0 0  2336
2 37392   0.0209 171.2579 0000330 180.2624  10.0678  1.00273137    15
INTELSAT NEW DAWN       
1 37392C 11016A   20237.00000000  .00000246  00000-0  00000-0 0  2374
2 37392   0.0392 255.8290 0000609 227.7545 241.9329  1.00272087    16
INTELSAT NEW DAWN   [PM]
1 37392C 11016A   20243.13590278  .00000246  00000-0  00000-0 0  2433
2 37392   0.0207 185.0158 0000975 315.6007 279.9022  1.00270329    12
INTELSAT 18             
1 37834C 11056A   20233.00000000 -.00004434  00000-0  00000-0 0  2335
2 37834   0.0456 292.2377 0002190 218.8349 357.7035  1.00272805    17
INTELSAT 18             
1 37834C 11056A   20237.00000000  .00000144  00000-0  00000-0 0  2376
2 37834   0.0026 114.8761 0002731  36.9217   0.9386  1.00272828    11
INTELSAT 18         [PM]
1 37834C 11056A   20237.85922454 -.00004018  00000-0  00000-0 0  2370
2 37834   0.0000 179.4052 0002871 330.0229 313.4786  1.00270341    13
INTELSAT 22         [PM]
1 38098C 12011A   20230.81379630 -.00003868  00000-0  00000-0 0  2301
2 38098   0.0133 193.8749 0002378 338.9402 158.8936  1.00270539    15
INTELSAT 22             
1 38098C 12011A   20233.00000000  .00000031  00000-0  00000-0 0  2338
2 38098   0.0118 193.9069 0002419 335.5297 231.4545  1.00270142    19
INTELSAT 22             
1 38098C 12011A   20237.00000000 -.00000006  00000-0  00000-0 0  2379
2 38098   0.0001 143.7041 0002748  22.2404 238.8744  1.00271495    12
INTELSAT 19             
1 38356C 12030A   20233.00000000  .00000033  00000-0  00000-0 0  2338
2 38356   0.0065 125.0307 0002705  25.7196 344.0359  1.00270351    18
INTELSAT 19             
1 38356C 12030A   20237.00000000  .00000031  00000-0  00000-0 0  2374
2 38356   0.0241 255.4462 0003310 250.4275 352.8584  1.00270423    19
INTELSAT 19         [PM]
1 38356C 12030A   20237.92144676  .00000178  00000-0  00000-0 0  2375
2 38356   0.0023 189.7038 0003315 317.6104 324.0469  1.00271434    13
INTELSAT 20             
1 38740C 12043A   20233.00000000  .00000066  00000-0  00000-0 0  2335
2 38740   0.0143 148.2966 0000932  58.3090 190.6877  1.00269556    10
INTELSAT 20         [PM]
1 38740C 12043A   20233.31666667  .00000066  00000-0  00000-0 0  2336
2 38740   0.0118 140.6065 0000999  50.7511 320.2417  1.00271584    10
INTELSAT 20             
1 38740C 12043A   20237.00000000  .00000066  00000-0  00000-0 0  2373
2 38740   0.0097 145.6607 0001094  33.9962 221.5711  1.00270666    13
INTELSAT 21             
1 38749C 12045A   20233.00000000 -.00003806  00000-0  00000-0 0  2332
2 38749   0.0154 200.7184 0001857 304.6185 125.4473  1.00272681    17
INTELSAT 21         [PM]
1 38749C 12045A   20234.53636574 -.00003926  00000-0  00000-0 0  2346
2 38749   0.0069 185.5462 0002010 319.2394 320.6088  1.00271881    19
INTELSAT 21             
1 38749C 12045A   20237.00000000 -.00000192  00000-0  00000-0 0  2375
2 38749   0.0000 146.2581 0002259 359.6043 128.8675  1.00271780    12
INTELSAT 23             
1 38867C 12057A   20233.00000000 -.00003808  00000-0  00000-0 0  2338
2 38867   0.0221 210.1609 0001576 297.6309 128.0030  1.00269260    14
INTELSAT 23             
1 38867C 12057A   20237.00000000 -.00000192  00000-0  00000-0 0  2379
2 38867   0.0030 159.0285 0001905 336.3672 144.3191  1.00273913    12
INTELSAT 23         [PM]
1 38867C 12057A   20237.66929398 -.00000194  00000-0  00000-0 0  2373
2 38867   0.0022 145.8431 0001920 350.7101  24.7707  1.00273466    10
INTELSAT 30             
1 40271C 14062A   20233.00000000 -.00000060  00000-0  00000-0 0  2335
2 40271   0.0041 128.5902 0001705 319.5574 145.5970  1.00269278    12
INTELSAT 30         [PM]
1 40271C 14062A   20233.18559028 -.00000079  00000-0  00000-0 0  2333
2 40271   0.0000 123.1727 0001842 311.6250 225.9421  1.00271238    12
INTELSAT 30             
1 40271C 14062A   20237.00000000 -.00000062  00000-0  00000-0 0  2375
2 40271   0.0000 124.6984 0002249 327.9714 145.0031  1.00269549    11
